EUTELSAT 5 WEST A       
1 27460U 02035A   22202.87310163 -.00000046  00000+0  00000+0 0  9995
2 27460   2.3997  89.0285 0004487  26.7111 133.1505  1.00271754 73313
METEOSAT-8 (MSG-1)      
1 27509U 02040B   22203.20188539  .00000129  00000+0  00000+0 0  9994
2 27509   8.1000  50.4736 0000169 144.2944 219.1812  1.00273090 72963
INTELSAT 906 (IS-906)   
1 27513U 02041A   22201.52392729  .00000008  00000+0  00000+0 0  9997
2 27513   2.1548  90.1640 0003101  34.5272  66.3548  1.00273180 72719
HISPASAT 30W-4          
1 27528U 02044A   22203.13730056 -.00000192  00000+0  00000+0 0  9999
2 27528   2.8894  86.4737 0046570  90.3432 168.4817  0.98932082 72639
TDRS 10                 
1 27566U 02055A   22203.23928994  .00000083  00000+0  00000+0 0  9992
2 27566   8.2637  49.7764 0007480 352.1394 173.0664  1.00275730 71939
NSS-6                   
1 27603U 02057A   22202.76854840  .00000105  00000+0  00000+0 0  9996
2 27603   1.6959  91.3134 0003367  35.3590 279.9528  1.00273943 71734
NIMIQ 2                 
1 27632U 02062A   22202.63708439 -.00000072  00000+0  00000+0 0  9996
2 27632   6.0824  70.2975 0006276  79.6594 269.5627  1.00273163 29879
USA 167                 
1 27691U 03008A   22202.68452104  .00000046  00000+0  00000+0 0  9992
2 27691   8.1082  54.4119 0002299  48.2219 313.2816  1.00271134 18651
USA 169 (MILSTAR-2 4)   
1 27711U 03012A   22203.37966186 -.00000201  00000+0  00000+0 0  9991
2 27711  10.1753  40.0262 0002045 107.4734  81.4255  1.00273559 17340
GALAXY 12 (G-12)        
1 27715U 03013B   22203.26348583  .00000055  00000+0  00000+0 0  9995
2 27715   3.3564  85.2341 0001729  44.0405 136.5552  1.00271610 37795
ASIASAT 4               
1 27718U 03014A   22203.34628029 -.00000223  00000+0  00000+0 0  9992
2 27718   1.0540  93.6909 0002482  14.8991 103.6988  1.00271046 70622
HELLAS-SAT 2            
1 27811U 03020A   22203.23521662 -.00000086  00000+0  00000+0 0  9993
2 27811   3.7711  84.2489 0005683  38.0802 252.2658  1.00272131 28544
THURAYA-2               
1 27825U 03026A   22203.16021588  .00000122  00000+0  00000+0 0  9998
2 27825   6.7701  34.4910 0002559  58.6320 308.4349  1.00271707 70051
OPTUS C1                
1 27831U 03028B   22203.12039483 -.00000154  00000+0  00000+0 0  9992
2 27831   3.2859  86.1082 0005766  35.4526  17.3475  1.00272246 38769
GALAXY 23 (G-23)        
1 27854U 03034A   22203.24054682  .00000013  00000+0  00000+0 0  9998
2 27854   0.0734 261.1689 0002913 236.7034 127.6913  1.00272958 69441
USA 170                 
1 27875U 03040A   22202.00744010 -.00000281  00000+0  00000+0 0  9990
2 27875   7.4511  59.6917 0004560  85.6626 113.6236  1.00268314 18651
GALAXY 13 (HORIZONS-1)  
1 27954U 03044A   22202.68452104  .00000047  00000+0  00000+0 0  9995
2 27954   0.0213  75.9365 0000828 270.3371  72.5337  1.00271873 32260
YAMAL 202               
1 28089U 03053A   22203.48065022 -.00000082  00000+0  00000+0 0  9993
2 28089   2.7218  87.6348 0007407  25.1513 163.8785  1.00271092 68385
UFO 11 (USA 174)        
1 28117U 03057A   22203.10417556 -.00000098  00000+0  00000+0 0  9998
2 28117   7.0291  37.8841 0005738  58.6182 315.2679  1.00272205 68156
USA 176 (DSP 22)        
1 28158U 04004A   22203.02827279 -.00000226  00000+0  00000+0 0  9997
2 28158  10.1344  35.0830 0000222 219.1946 142.9355  1.00276476 18636
ABS-4 (MOBISAT-1)       
1 28184U 04007A   22202.38431272  .00000037  00000+0  00000+0 0  9990
2 28184   2.4062  88.8251 0005162  33.1779  16.4132  1.00271933 38032
EUTELSAT 7A             
1 28187U 04008A   22203.22603375  .00000103  00000+0  00000+0 0  9997
2 28187   2.1954  87.9757 0004013  35.2638 118.8428  1.00272956 67059
AMC-11 (GE-11)          
1 28252U 04017A   22203.23069444  .00000069  00000+0  00000+0 0  9995
2 28252   0.0539 287.5872 0002429 195.6906 128.7090  1.00271884 66583
INTELSAT 10-02          
1 28358U 04022A   22202.94754250 -.00000012  00000+0  00000+0 0  9990
2 28358   0.0338 236.2478 0000635 252.1089 151.4316  1.00271581 66249
ANIK F2                 
1 28378U 04027A   22202.99549580 -.00000050  00000+0  00000+0 0  9992
2 28378   0.0602 106.6066 0002053  60.5670  19.8255  1.00270692 26967
AMC-15                  
1 28446U 04041A   22203.24531581 -.00000088  00000+0  00000+0 0  9996
2 28446   0.0554 289.3720 0002305 193.7505 160.0854  1.00269858 65027
NSS-10 (AMC-12)         
1 28526U 05003A   22203.29710816 -.00000253  00000+0  00000+0 0  9993
2 28526   2.8694  87.0168 0002718  24.2427 258.2563  1.00271975 64028
XTAR-EUR                
1 28542U 05005A   22202.08943586  .00000148  00000+0  00000+0 0  9993
2 28542   0.6617  94.4120 0002889  25.2292 240.3721  1.00273825 63873
XM-3 (RHYTHM)           
1 28626U 05008A   22203.25650775 -.00000205  00000+0  00000+0 0  9999
2 28626   0.0421 214.7092 0001578 320.7202 131.7783  1.00270787 28322
INMARSAT 4-F1           
1 28628U 05009A   22202.83098387 -.00000264  00000+0  00000+0 0  9995
2 28628   3.6351  35.4342 0002754  96.9501 249.8284  1.00272233 63360
DIRECTV 8               
1 28659U 05019A   22203.23766837  .00000001  00000+0  00000+0 0  9995
2 28659   0.0211  62.3382 0002912  70.1867 133.9574  1.00270114 62773
GALAXY 28 (G-28)        
1 28702U 05022A   22202.85635918 -.00000186  00000+0  00000+0 0  9995
2 28702   0.0486  74.4320 0001965  55.9254  28.5354  1.00269898 37684
THAICOM 4               
1 28786U 05028A   22202.73077120 -.00000364  00000+0  00000+0 0  9993
2 28786   0.0199  55.8546 0001978  73.7425 192.4296  1.00267771 37956
GALAXY 14 (G-14)        
1 28790U 05030A   22203.29840926  .00000154  00000+0  00000+0 0  9991
2 28790   1.3494  91.9361 0001778  26.3196 322.0642  1.00270492 62000
ANIK F1R                
1 28868U 05036A   22203.24455786 -.00000074  00000+0  00000+0 0  9996
2 28868   0.6466  93.5096 0002847  19.3300 167.8453  1.00272026 32150
GALAXY 15 (G-15)        
1 28884U 05041A   22203.37067743  .00000079  00000+0  00000+0 0  9990
2 28884   0.0454 291.1007 0001698 192.8264 176.6113  1.00273005 61304
SYRACUSE 3A             
1 28885U 05041B   22203.24702090  .00000128  00000+0  00000+0 0  9993
2 28885   1.2073  93.0439 0002756  29.3431 313.5152  1.00268510 61433
INMARSAT 4-F2           
1 28899U 05044A   22202.52840255  .00000006  00000+0  00000+0 0  9992
2 28899   3.5263  37.7013 0002816  93.7468  61.9402  1.00272909 61214
SPACEWAY 2              
1 28903U 05046B   22203.22603383  .00000102  00000+0  00000+0 0  9994
2 28903   1.9836  87.6542 0000383 345.1610 169.5840  1.00272697 37048
METEOSAT-9 (MSG-2)      
1 28912U 05049B   22203.20188539  .00000123  00000+0  00000+0 0  9999
2 28912   6.0958  66.0912 0000656 325.5489  26.6923  1.00266960 60733
EUTELSAT 174A           
1 28924U 05052A   22203.17827375  .00000009  00000+0  00000+0 0  9993
2 28924   0.5949  92.4806 0006138  27.7317  57.8606  1.00270335 38035
ECHOSTAR 10             
1 28935U 06003A   22203.24308104 -.00000055  00000+0  00000+0 0  9996
2 28935   0.0183 277.0140 0001634 155.2848 204.9671  1.00272041 60179
SPAINSAT                
1 28945U 06007A   22202.25279075 -.00000218  00000+0  00000+0 0  9996
2 28945   0.0619 249.4998 0004052 264.6637 205.8419  1.00271723 59912
EUTELSAT HOTBIRD 13E    
1 28946U 06007B   22203.09196750  .00000087  00000+0  00000+0 0  9991
2 28946   0.0471 190.0299 0006621 315.0984 200.7807  1.00273475 60018
JCSAT-5A                
1 29045U 06010A   22203.20049306 -.00000328  00000+0  00000+0 0  9992
2 29045   0.0379 250.8008 0001750 238.1270  15.2226  1.00271104 59468
ASTRA 1KR               
1 29055U 06012A   22203.09318831  .00000120  00000+0  00000+0 0  9993
2 29055   0.0726 268.2390 0003081 262.0277 182.3297  1.00277328 31428
EWS-G1 (GOES 13)        
1 29155U 06018A   22203.28868955  .00000039  00000+0  00000+0 0  9997
2 29155   0.6848  96.8124 0004579  91.2501 277.0441  1.00273810 59217
EUTELSAT 113 WEST A     
1 29162U 06020A   22203.39402878 -.00000037  00000+0  00000+0 0  9997
2 29162   0.0133 125.6691 0003092   5.9134 197.3716  1.00272070 59169
GALAXY 16 (G-16)        
1 29236U 06023A   22203.24903966 -.00000127  00000+0  00000+0 0  9990
2 29236   0.0527 258.7726 0002753 233.1886 158.6427  1.00272296 58671
EUTELSAT HOTBIRD 13B    
1 29270U 06032A   22203.09196750  .00000086  00000+0  00000+0 0  9999
2 29270   0.0646   3.9506 0003011 114.3915 227.5464  1.00272791 33005
JCSAT-3A                
1 29272U 06033A   22203.20049306 -.00000345  00000+0  00000+0 0  9998
2 29272   0.0133  40.5254 0002172  98.1851   1.4038  1.00270329 33449
SYRACUSE 3B             
1 29273U 06033B   22203.23521662 -.00000044  00000+0  00000+0 0  9998
2 29273   0.0292 113.4753 0004645   3.3906 262.5532  1.00271931 58408
KOREASAT 5 (MUGUNGWHA 5)
1 29349U 06034A   22203.01716149 -.00000359  00000+0  00000+0 0  9994
2 29349   0.0248 169.8782 0001232 339.1767 269.8990  1.00269946 27018
DIRECTV 9S              
1 29494U 06043A   22203.23183478 -.00000113  00000+0  00000+0 0  9990
2 29494   0.0134  54.1372 0002892  77.0308 151.0566  1.00271672 37084
OPTUS D1                
1 29495U 06043B   22202.90594104 -.00000112  00000+0  00000+0 0  9995
2 29495   0.0546 271.1174 0003473 213.8158 300.8188  1.00270968 57816
XM-4 (BLUES)            
1 29520U 06049A   22202.57042285 -.00000207  00000+0  00000+0 0  9996
2 29520   0.0598 272.5515 0001575  51.8062  95.1606  1.00269227 57692
BADR-4                  
1 29526U 06051A   22203.11507620  .00000144  00000+0  00000+0 0  9994
2 29526   0.0463 327.1658 0001533 178.6380 221.4644  1.00268582 36965
WILDBLUE-1              
1 29643U 06054A   22202.99549580 -.00000049  00000+0  00000+0 0  9998
2 29643   0.0160  87.0365 0001543  36.8806  62.9996  1.00272873 39492
AMC-18                  
1 29644U 06054B   22202.57085885 -.00000217  00000+0  00000+0 0  9993
2 29644   0.0494 281.0829 0002438 203.9335 296.7724  1.00270204 57236
